{"type":"FeatureCollection","features":[{"type":"Feature","properties":{"oid_":115001,"pubname":"Eddies Social Club","streetaddr":"Pavilion No 1, Hanworth Air Park, Hounslow Road","postcode":"TW13 6AD","easting":511998,"northing":172466,"lat":51.440118,"long":-0.389991},"geometry":{"type":"Point","coordinates":[-0.389991,51.440118]}},{"type":"Feature","properties":{"oid_":115745,"pubname":"Royal British Legion Club Ltd","streetaddr":"20-22 Cross Road, Feltham","postcode":"TW13 6QW","easting":512202,"northing":171766,"lat":51.433786,"long":-0.387279},"geometry":{"type":"Point","coordinates":[-0.387279,51.433786]}},{"type":"Feature","properties":{"oid_":116054,"pubname":"The Swan","streetaddr":"201 Swan Road, Feltham","postcode":"TW13 6RQ","easting":512060,"northing":171387,"lat":51.430417,"long":-0.38944},"geometry":{"type":"Point","coordinates":[-0.38944,51.430417]}},{"type":"Feature","properties":{"oid_":119716,"pubname":"Acorn 20","streetaddr":"20 Richmond Road, Kingston Upon Thames","postcode":"KT2 5EB","easting":518289,"northing":169582,"lat":51.412929,"long":-0.300481},"geometry":{"type":"Point","coordinates":[-0.300481,51.412929]}},{"type":"Feature","properties":{"oid_":119721,"pubname":"AFC Wimbledon","streetaddr":"A F C Wimbledon, Kingsmeadow Stadium, 422a Kingston Road, Kingston Upon Thames","postcode":"KT1 3PB","easting":519631,"northing":168849,"lat":51.40606,"long":-0.281441},"geometry":{"type":"Point","coordinates":[-0.281441,51.40606]}},{"type":"Feature","properties":{"oid_":119775,"pubname":"Bacchus Late Bar & Venue","streetaddr":"2 Church Street, Kingston Upon Thames","postcode":"KT1 1RJ","easting":517962,"northing":169270,"lat":51.410193,"long":-0.305285},"geometry":{"type":"Point","coordinates":[-0.305285,51.410193]}},{"type":"Feature","properties":{"oid_":119778,"pubname":"Bar Malden","streetaddr":"1-3 St Georges Square, New Malden","postcode":"KT3 4HG","easting":521400,"northing":168617,"lat":51.4036,"long":-0.256114},"geometry":{"type":"Point","coordinates":[-0.256114,51.4036]}},{"type":"Feature","properties":{"oid_":119779,"pubname":"Barcadia","streetaddr":"167 Clarence Street, Kingston Upon Thames","postcode":"KT1 1QT","easting":518263,"northing":169433,"lat":51.411596,"long":-0.300904},"geometry":{"type":"Point","coordinates":[-0.300904,51.411596]}},{"type":"Feature","properties":{"oid_":119786,"pubname":"BBQ Inn","streetaddr":"33 Richmond Road, Kingston Upon Thames","postcode":"KT2 5BW","easting":518256,"northing":169677,"lat":51.41379,"long":-0.300924},"geometry":{"type":"Point","coordinates":[-0.300924,51.41379]}},{"type":"Feature","properties":{"oid_":119789,"pubname":"Bean Bar","streetaddr":"Kingston University, Kingston Hill, Kingston Upon Thames","postcode":"KT2 7NB","easting":520530,"northing":171625,"lat":51.430819,"long":-0.267579},"geometry":{"type":"Point","coordinates":[-0.267579,51.430819]}},{"type":"Feature","properties":{"oid_":119806,"pubname":"Bishop Out Of Residence","streetaddr":"Bishop Out Of Residence, 2 Bishops Hall, Kingston Upon Thames","postcode":"KT1 1PY","easting":517771,"northing":169280,"lat":51.410323,"long":-0.308026},"geometry":{"type":"Point","coordinates":[-0.308026,51.410323]}},{"type":"Feature","properties":{"oid_":119812,"pubname":"Boaters","streetaddr":"The Boaters Inn, Canbury Gardens, Kingston Upon Thames","postcode":"KT2 5AU","easting":517916,"northing":170244,"lat":51.418957,"long":-0.305622},"geometry":{"type":"Point","coordinates":[-0.305622,51.418957]}},{"type":"Feature","properties":{"oid_":119825,"pubname":"Brave New World","streetaddr":"22-26 Berrylands Road, Surbiton","postcode":"KT5 8RA","easting":518640,"northing":167383,"lat":51.393092,"long":-0.296171},"geometry":{"type":"Point","coordinates":[-0.296171,51.393092]}},{"type":"Feature","properties":{"oid_":119831,"pubname":"Broadway Bar Cafe","streetaddr":"43-51 Tolworth Broadway, Tolworth","postcode":"KT6 7DW","easting":519664,"northing":166021,"lat":51.380627,"long":-0.281919},"geometry":{"type":"Point","coordinates":[-0.281919,51.380627]}},{"type":"Feature","properties":{"oid_":119832,"pubname":"Broadway Cafe","streetaddr":"66 Tolworth Broadway, Tolworth","postcode":"KT6 7HR","easting":519587,"northing":166049,"lat":51.380895,"long":-0.283015},"geometry":{"type":"Point","coordinates":[-0.283015,51.380895]}},{"type":"Feature","properties":{"oid_":119911,"pubname":"Chessington TSVC","streetaddr":"British Telecom, Cox Lane, Chessington","postcode":"KT9 1TX","easting":518824,"northing":164579,"lat":51.367852,"long":-0.294465},"geometry":{"type":"Point","coordinates":[-0.294465,51.367852]}},{"type":"Feature","properties":{"oid_":119925,"pubname":"Christ Church","streetaddr":"Christ Church Parish Office, 91 Coombe Road, New Malden","postcode":"KT3 4RE","easting":521268,"northing":169105,"lat":51.408005,"long":-0.257844},"geometry":{"type":"Point","coordinates":[-0.257844,51.408005]}},{"type":"Feature","properties":{"oid_":119935,"pubname":"Colliers Wood United Football Club","streetaddr":"Wibbandune Sports Club, Robin Hood Way, Kingston Vale","postcode":"SW15 3QF","easting":521438,"northing":171512,"lat":51.42961,"long":-0.254562},"geometry":{"type":"Point","coordinates":[-0.254562,51.42961]}},{"type":"Feature","properties":{"oid_":119948,"pubname":"Coombe Hill Golf Club","streetaddr":"Coombe Hill Golf Club, Golf Club Drive, Kingston Upon Thames","postcode":"KT2 7DF","easting":520894,"northing":170214,"lat":51.418061,"long":-0.262826},"geometry":{"type":"Point","coordinates":[-0.262826,51.418061]}},{"type":"Feature","properties":{"oid_":119954,"pubname":"Coombe Wood Lawn Tennis Club","streetaddr":"Galsworthy Road, Kingston Upon Thames","postcode":"KT2 7BS","easting":519683,"northing":169718,"lat":51.413859,"long":-0.2804},"geometry":{"type":"Point","coordinates":[-0.2804,51.413859]}},{"type":"Feature","properties":{"oid_":119957,"pubname":"Corinthian Casuals","streetaddr":"King Georges Field, Hook Rise South, Chessington","postcode":"KT6 7NA","easting":519341,"northing":165283,"lat":51.374071,"long":-0.286805},"geometry":{"type":"Point","coordinates":[-0.286805,51.374071]}},{"type":"Feature","properties":{"oid_":119958,"pubname":"Coronation Hall","streetaddr":"Ritz Bingo Hall, St Marks Hill, Surbiton","postcode":"KT6 4LQ","easting":518113,"northing":167431,"lat":51.393625,"long":-0.303726},"geometry":{"type":"Point","coordinates":[-0.303726,51.393625]}},{"type":"Feature","properties":{"oid_":119978,"pubname":"Cricketers","streetaddr":"The Cricketers, Clayton Road, Chessington","postcode":"KT9 1NQ","easting":517686,"northing":164542,"lat":51.367748,"long":-0.310817},"geometry":{"type":"Point","coordinates":[-0.310817,51.367748]}},{"type":"Feature","properties":{"oid_":119987,"pubname":"David Lloyd","streetaddr":"Clarence Street, Kingston Upon Thames","postcode":"KT1 1QJ","easting":518369,"northing":169449,"lat":51.411717,"long":-0.299376},"geometry":{"type":"Point","coordinates":[-0.299376,51.411717]}},{"type":"Feature","properties":{"oid_":120015,"pubname":"Doris Venner","streetaddr":"The Manor Drive, Worcester Park","postcode":"KT4 7LG","easting":521990,"northing":166087,"lat":51.380725,"long":-0.24849},"geometry":{"type":"Point","coordinates":[-0.24849,51.380725]}},{"type":"Feature","properties":{"oid_":120020,"pubname":"Duke of York","streetaddr":"Hogshead, 64-65 Victoria Road, Surbiton","postcode":"KT6 4NQ","easting":517892,"northing":167238,"lat":51.391936,"long":-0.306965},"geometry":{"type":"Point","coordinates":[-0.306965,51.391936]}},{"type":"Feature","properties":{"oid_":120065,"pubname":"Fountain","streetaddr":"The Fountain, Malden Road, New Malden","postcode":"KT3 6DD","easting":521479,"northing":168025,"lat":51.398262,"long":-0.255167},"geometry":{"type":"Point","coordinates":[-0.255167,51.398262]}},{"type":"Feature","properties":{"oid_":120067,"pubname":"Fountain Youth Club","streetaddr":"Fountain Youth Club, Kingston Road, New Malden","postcode":"KT3 4BH","easting":521424,"northing":168167,"lat":51.39955,"long":-0.255922},"geometry":{"type":"Point","coordinates":[-0.255922,51.39955]}},{"type":"Feature","properties":{"oid_":120080,"pubname":"Fulham Football Club","streetaddr":"Rookery Cottage, Motspur Park, New Malden","postcode":"KT3 6PT","easting":522052,"northing":167260,"lat":51.391264,"long":-0.247197},"geometry":{"type":"Point","coordinates":[-0.247197,51.391264]}},{"type":"Feature","properties":{"oid_":120083,"pubname":"Gannets","streetaddr":"Kingston University, Knights Park, Kingston Upon Thames","postcode":"KT1 2QJ","easting":518418,"northing":168741,"lat":51.405344,"long":-0.298908},"geometry":{"type":"Point","coordinates":[-0.298908,51.405344]}},{"type":"Feature","properties":{"oid_":120093,"pubname":"Goals Soccer Centre","streetaddr":"Deckers Sports Ground, Kingston Road, Tolworth","postcode":"KT5 9NT","easting":519989,"northing":165660,"lat":51.377323,"long":-0.277373},"geometry":{"type":"Point","coordinates":[-0.277373,51.377323]}},{"type":"Feature","properties":{"oid_":120095,"pubname":"Gordon Bennett bar & kitchen","streetaddr":"The Gordon Bennett, 75 Maple Road, Surbiton","postcode":"KT6 4AG","easting":517791,"northing":167538,"lat":51.394662,"long":-0.308317},"geometry":{"type":"Point","coordinates":[-0.308317,51.394662]}},{"type":"Feature","properties":{"oid_":120098,"pubname":"Grafton Club","streetaddr":"36 Grafton Road, New Malden","postcode":"KT3 3AA","easting":521205,"northing":168505,"lat":51.402634,"long":-0.258953},"geometry":{"type":"Point","coordinates":[-0.258953,51.402634]}},{"type":"Feature","properties":{"oid_":120111,"pubname":"Han","streetaddr":"1 High Street, New Malden","postcode":"KT3 4DQ","easting":521306,"northing":168592,"lat":51.403386,"long":-0.257459},"geometry":{"type":"Point","coordinates":[-0.257459,51.403386]}},{"type":"Feature","properties":{"oid_":120113,"pubname":"Hannafords","streetaddr":"Hannerfords Bar  Kingston Stud, Kingston Hill, Kingston Upon Thames","postcode":"KT2 7LB","easting":520761,"northing":171480,"lat":51.429467,"long":-0.264307},"geometry":{"type":"Point","coordinates":[-0.264307,51.429467]}},{"type":"Feature","properties":{"oid_":120115,"pubname":"Harts Boatyard","streetaddr":"Harts Boatyard, Portsmouth Road, Surbiton","postcode":"KT6 4HJ","easting":517528,"northing":167789,"lat":51.396972,"long":-0.312012},"geometry":{"type":"Point","coordinates":[-0.312012,51.396972]}},{"type":"Feature","properties":{"oid_":120133,"pubname":"Hollywood Bowl","streetaddr":"Charrington Bowl, Kingston Road, Tolworth","postcode":"KT5 9PB","easting":519772,"northing":165711,"lat":51.377818,"long":-0.280472},"geometry":{"type":"Point","coordinates":[-0.280472,51.377818]}},{"type":"Feature","properties":{"oid_":120144,"pubname":"Hook Youth And Activity Centre","streetaddr":"Devon Way, Chessington","postcode":"KT9 2RJ","easting":517355,"northing":164493,"lat":51.367375,"long":-0.315585},"geometry":{"type":"Point","coordinates":[-0.315585,51.367375]}},{"type":"Feature","properties":{"oid_":120177,"pubname":"JCT Sports Cafe Ltd, Kingsmeadow Fitness Centre","streetaddr":"Kingsmeadow Stadium, Kingston Road, Kingston Upon Thames","postcode":"KT1 3PB","easting":519631,"northing":168849,"lat":51.40606,"long":-0.281441},"geometry":{"type":"Point","coordinates":[-0.281441,51.40606]}},{"type":"Feature","properties":{"oid_":120212,"pubname":"Kings College Sports Ground","streetaddr":"Kings College Sports Ground, Windsor Avenue, New Malden","postcode":"KT3 5HA","easting":520341,"northing":167678,"lat":51.395377,"long":-0.271635},"geometry":{"type":"Point","coordinates":[-0.271635,51.395377]}},{"type":"Feature","properties":{"oid_":120215,"pubname":"Kings Tun","streetaddr":"153-157 Clarence Street, Kingston Upon Thames","postcode":"KT1 1QT","easting":518263,"northing":169433,"lat":51.411596,"long":-0.300904},"geometry":{"type":"Point","coordinates":[-0.300904,51.411596]}},{"type":"Feature","properties":{"oid_":120219,"pubname":"Kingston & Elmbridge British Sub Aqua Club","streetaddr":"King Georges Field, Hook Rise South, Chessington","postcode":"KT6 7NA","easting":519341,"northing":165283,"lat":51.374071,"long":-0.286805},"geometry":{"type":"Point","coordinates":[-0.286805,51.374071]}},{"type":"Feature","properties":{"oid_":120231,"pubname":"Kingston Mill","streetaddr":"58-62 High Street, Kingston Upon Thames","postcode":"KT1 1HN","easting":517774,"northing":168930,"lat":51.407176,"long":-0.308099},"geometry":{"type":"Point","coordinates":[-0.308099,51.407176]}},{"type":"Feature","properties":{"oid_":120235,"pubname":"Kingston Riding School","streetaddr":"40 Crescent Road, Kingston Upon Thames","postcode":"KT2 7RG","easting":519481,"northing":170303,"lat":51.419159,"long":-0.283106},"geometry":{"type":"Point","coordinates":[-0.283106,51.419159]}},{"type":"Feature","properties":{"oid_":120236,"pubname":"Kingston Rowing Club","streetaddr":"The Boaters Inn, Canbury Gardens, Kingston Upon Thames","postcode":"KT2 5AU","easting":517916,"northing":170244,"lat":51.418957,"long":-0.305622},"geometry":{"type":"Point","coordinates":[-0.305622,51.418957]}},{"type":"Feature","properties":{"oid_":120241,"pubname":"Kingston Working Mens Club","streetaddr":"25 Old London Road, Kingston Upon Thames","postcode":"KT2 6ND","easting":518405,"northing":169362,"lat":51.410928,"long":-0.298887},"geometry":{"type":"Point","coordinates":[-0.298887,51.410928]}},{"type":"Feature","properties":{"oid_":120301,"pubname":"London River Yacht Club","streetaddr":"London River Yacht Club, Portsmouth Road, Kingston Upon Thames","postcode":"KT6 4HL","easting":517642,"northing":167944,"lat":51.398341,"long":-0.310322},"geometry":{"type":"Point","coordinates":[-0.310322,51.398341]}},{"type":"Feature","properties":{"oid_":120309,"pubname":"Love Your Greens Catering, King George Fields Indoor Bowls Club","streetaddr":"King George Fields Indoor Bowls Club, Jubilee Way, Chessington","postcode":"KT9 1TR","easting":519444,"northing":164828,"lat":51.36996,"long":-0.285478},"geometry":{"type":"Point","coordinates":[-0.285478,51.36996]}},{"type":"Feature","properties":{"oid_":120311,"pubname":"LSE Sportsground","streetaddr":"Lse Sports Ground, Windsor Avenue, New Malden","postcode":"KT3 5HB","easting":520316,"northing":167632,"lat":51.394978,"long":-0.272024},"geometry":{"type":"Point","coordinates":[-0.272024,51.394978]}},{"type":"Feature","properties":{"oid_":120323,"pubname":"Malden Bowling Club","streetaddr":"Lime Grove, New Malden","postcode":"KT3 3TW","easting":521140,"northing":168924,"lat":51.406414,"long":-0.259731},"geometry":{"type":"Point","coordinates":[-0.259731,51.406414]}},{"type":"Feature","properties":{"oid_":120325,"pubname":"Malden Golf Club","streetaddr":"Malden Golf Club, Traps Lane, New Malden","postcode":"KT3 4RS","easting":521221,"northing":169328,"lat":51.410028,"long":-0.258443},"geometry":{"type":"Point","coordinates":[-0.258443,51.410028]}},{"type":"Feature","properties":{"oid_":120329,"pubname":"Malden Wanderers Cricket & Lawn Tennis Club","streetaddr":"18-20 Cambridge Avenue, New Malden","postcode":"KT3 4LE","easting":521546,"northing":169179,"lat":51.408619,"long":-0.253823},"geometry":{"type":"Point","coordinates":[-0.253823,51.408619]}},{"type":"Feature","properties":{"oid_":120334,"pubname":"Manor Park Bowls","streetaddr":"Manor Park, Malden Road, Worcester Park","postcode":"KT3 6AU","easting":521662,"northing":166849,"lat":51.387654,"long":-0.252954},"geometry":{"type":"Point","coordinates":[-0.252954,51.387654]}},{"type":"Feature","properties":{"oid_":120422,"pubname":"New Malden Club","streetaddr":"5 Coombe Road, New Malden","postcode":"KT3 4PX","easting":521356,"northing":168714,"lat":51.40448,"long":-0.256712},"geometry":{"type":"Point","coordinates":[-0.256712,51.40448]}},{"type":"Feature","properties":{"oid_":120427,"pubname":"New Malden Tennis, Squash & Badminton Club","streetaddr":"Somerset Close, New Malden","postcode":"KT3 5RG","easting":521412,"northing":167489,"lat":51.393459,"long":-0.256312},"geometry":{"type":"Point","coordinates":[-0.256312,51.393459]}},{"type":"Feature","properties":{"oid_":120468,"pubname":"O'Neills","streetaddr":"3 Eden Street, Kingston Upon Thames","postcode":"KT1 1BQ","easting":517945,"northing":169150,"lat":51.409118,"long":-0.305569},"geometry":{"type":"Point","coordinates":[-0.305569,51.409118]}},{"type":"Feature","properties":{"oid_":120499,"pubname":"Pavilion Cafe and Bar","streetaddr":"Polytechnic Sports Ground, Old Kingston Road, Tolworth","postcode":"KT4 7QH","easting":520133,"northing":165481,"lat":51.375675,"long":-0.275366},"geometry":{"type":"Point","coordinates":[-0.275366,51.375675]}},{"type":"Feature","properties":{"oid_":120509,"pubname":"Piper Hall","streetaddr":"Piper Hall, Piper Road, Kingston Upon Thames","postcode":"KT1 3EX","easting":519044,"northing":168918,"lat":51.406804,"long":-0.289853},"geometry":{"type":"Point","coordinates":[-0.289853,51.406804]}},{"type":"Feature","properties":{"oid_":120551,"pubname":"Prince Of Wales","streetaddr":"279 Kingston Road, New Malden","postcode":"KT3 3SN","easting":520051,"northing":168634,"lat":51.404039,"long":-0.275492},"geometry":{"type":"Point","coordinates":[-0.275492,51.404039]}},{"type":"Feature","properties":{"oid_":120555,"pubname":"Pryzm","streetaddr":"154-166 Clarence Street, Kingston Upon Thames","postcode":"KT1 1QP","easting":518292,"northing":169368,"lat":51.411005,"long":-0.300509},"geometry":{"type":"Point","coordinates":[-0.300509,51.411005]}},{"type":"Feature","properties":{"oid_":120560,"pubname":"Queens Head","streetaddr":"144 Richmond Road, Kingston Upon Thames","postcode":"KT2 5HA","easting":518212,"northing":170234,"lat":51.418814,"long":-0.30137},"geometry":{"type":"Point","coordinates":[-0.30137,51.418814]}},{"type":"Feature","properties":{"oid_":120603,"pubname":"Royal British Legion Club Surbiton","streetaddr":"British Legion Club, Hollyfield Road, Surbiton","postcode":"KT5 9AL","easting":518886,"northing":166659,"lat":51.386534,"long":-0.292879},"geometry":{"type":"Point","coordinates":[-0.292879,51.386534]}},{"type":"Feature","properties":{"oid_":120660,"pubname":"Slug & Lettuce","streetaddr":"1 Jerome Place, Kingston Upon Thames","postcode":"KT1 1HT","easting":517777,"northing":169185,"lat":51.409468,"long":-0.307972},"geometry":{"type":"Point","coordinates":[-0.307972,51.409468]}},{"type":"Feature","properties":{"oid_":120687,"pubname":"Spring Grove Public House","streetaddr":"The Spring Grove, 13 Bloomfield Road, Kingston Upon Thames","postcode":"KT1 2SF","easting":518384,"northing":168508,"lat":51.403257,"long":-0.299474},"geometry":{"type":"Point","coordinates":[-0.299474,51.403257]}},{"type":"Feature","properties":{"oid_":120708,"pubname":"Steins","streetaddr":"56 High Street, Kingston Upon Thames","postcode":"KT1 1HN","easting":517774,"northing":168930,"lat":51.407176,"long":-0.308099},"geometry":{"type":"Point","coordinates":[-0.308099,51.407176]}},{"type":"Feature","properties":{"oid_":120725,"pubname":"Sunray Community Centre","streetaddr":"Sunray Community Centre, Knollmead, Tolworth","postcode":"KT5 9QP","easting":520228,"northing":165823,"lat":51.378729,"long":-0.273886},"geometry":{"type":"Point","coordinates":[-0.273886,51.378729]}},{"type":"Feature","properties":{"oid_":120731,"pubname":"Supreme Bowling Club","streetaddr":"Kings College Sports Ground, Windsor Avenue, New Malden","postcode":"KT3 5HA","easting":520341,"northing":167678,"lat":51.395377,"long":-0.271635},"geometry":{"type":"Point","coordinates":[-0.271635,51.395377]}},{"type":"Feature","properties":{"oid_":120737,"pubname":"Surbiton Croquet Club","streetaddr":"Surbiton Croquet Club, Alexandra Drive, Surbiton","postcode":"KT5 9AF","easting":519457,"northing":166935,"lat":51.388886,"long":-0.284585},"geometry":{"type":"Point","coordinates":[-0.284585,51.388886]}},{"type":"Feature","properties":{"oid_":120741,"pubname":"Surbiton Masonic Hall Limited","streetaddr":"6 The Crescent, Surbiton","postcode":"KT6 4BN","easting":518007,"northing":167652,"lat":51.395642,"long":-0.305176},"geometry":{"type":"Point","coordinates":[-0.305176,51.395642]}},{"type":"Feature","properties":{"oid_":120742,"pubname":"Surbiton Methodist Tennis Club","streetaddr":"Manor Drive, Surbiton","postcode":"KT5 8NE","easting":519006,"northing":167291,"lat":51.392188,"long":-0.290943},"geometry":{"type":"Point","coordinates":[-0.290943,51.392188]}},{"type":"Feature","properties":{"oid_":120748,"pubname":"Surbiton Racket & Fitness Club","streetaddr":"Surbiton Tennis Club, Berrylands, Surbiton","postcode":"KT5 8JT","easting":519062,"northing":167457,"lat":51.393669,"long":-0.290084},"geometry":{"type":"Point","coordinates":[-0.290084,51.393669]}},{"type":"Feature","properties":{"oid_":120753,"pubname":"Surrey County Council Staff Club","streetaddr":"Ground Floor Restaurant, Count, Penrhyn Road, Kingston Upon Thames, Kingston Upon Thames","postcode":"KT1 2DW","easting":518004,"northing":168707,"lat":51.405115,"long":-0.304868},"geometry":{"type":"Point","coordinates":[-0.304868,51.405115]}},{"type":"Feature","properties":{"oid_":120765,"pubname":"Swinerton Hall","streetaddr":"60 Gibbon Road, Kingston Upon Thames","postcode":"KT2 6AB","easting":518393,"northing":169957,"lat":51.416277,"long":-0.298861},"geometry":{"type":"Point","coordinates":[-0.298861,51.416277]}},{"type":"Feature","properties":{"oid_":120773,"pubname":"Tenpin Megabowl","streetaddr":"Megabowl, The Rotunda Centre, Clarence Street, Kingston Upon Thames","postcode":"KT1 1QJ","easting":518369,"northing":169449,"lat":51.411717,"long":-0.299376},"geometry":{"type":"Point","coordinates":[-0.299376,51.411717]}},{"type":"Feature","properties":{"oid_":120788,"pubname":"Thames Sailing Club","streetaddr":"Thames Sailing Club, Portsmouth Road, Surbiton","postcode":"KT6 4HH","easting":517573,"northing":167843,"lat":51.397448,"long":-0.311348},"geometry":{"type":"Point","coordinates":[-0.311348,51.397448]}},{"type":"Feature","properties":{"oid_":120792,"pubname":"The Albert","streetaddr":"57 Kingston Hill, Kingston Upon Thames","postcode":"KT2 7PX","easting":519503,"northing":170071,"lat":51.41707,"long":-0.282868},"geometry":{"type":"Point","coordinates":[-0.282868,51.41707]}},{"type":"Feature","properties":{"oid_":120793,"pubname":"The Albion Tavern","streetaddr":"45 Fairfield Road, Kingston Upon Thames","postcode":"KT1 2PY","easting":518484,"northing":169178,"lat":51.409257,"long":-0.297813},"geometry":{"type":"Point","coordinates":[-0.297813,51.409257]}},{"type":"Feature","properties":{"oid_":120795,"pubname":"The Antelope","streetaddr":"The Antelope, 87 Maple Road, Surbiton","postcode":"KT6 4AW","easting":517829,"northing":167604,"lat":51.395247,"long":-0.307749},"geometry":{"type":"Point","coordinates":[-0.307749,51.395247]}},{"type":"Feature","properties":{"oid_":120796,"pubname":"The Berrylands","streetaddr":"The Berrylands Hotel, 107 Chiltern Drive, Surbiton","postcode":"KT5 8LS","easting":519722,"northing":168003,"lat":51.398438,"long":-0.280418},"geometry":{"type":"Point","coordinates":[-0.280418,51.398438]}},{"type":"Feature","properties":{"oid_":120799,"pubname":"The Black Lion","streetaddr":"58 Brighton Road, Surbiton","postcode":"KT6 5PL","easting":517660,"northing":167230,"lat":51.391921,"long":-0.310301},"geometry":{"type":"Point","coordinates":[-0.310301,51.391921]}},{"type":"Feature","properties":{"oid_":120802,"pubname":"The Bricklayers Arms","streetaddr":"The Bricklayers Arms, 53 Hawks Road, Kingston Upon Thames","postcode":"KT1 3DS","easting":518831,"northing":169128,"lat":51.408736,"long":-0.292843},"geometry":{"type":"Point","coordinates":[-0.292843,51.408736]}},{"type":"Feature","properties":{"oid_":120807,"pubname":"The Canbury Arms","streetaddr":"The Canbury Arms, 49 Canbury Park Road, Kingston Upon Thames","postcode":"KT2 6LQ","easting":518658,"northing":169664,"lat":51.413589,"long":-0.29515},"geometry":{"type":"Point","coordinates":[-0.29515,51.413589]}},{"type":"Feature","properties":{"oid_":120808,"pubname":"The Cap In Hand","streetaddr":"The Cap In Hand, 174 Hook Rise North, Tolworth","postcode":"KT6 5DE","easting":518107,"northing":165424,"lat":51.375587,"long":-0.304479},"geometry":{"type":"Point","coordinates":[-0.304479,51.375587]}},{"type":"Feature","properties":{"oid_":120809,"pubname":"The Cardinal PH","streetaddr":"The Cardinal, 174 Tudor Drive, Kingston Upon Thames","postcode":"KT2 5QG","easting":518335,"northing":171145,"lat":51.426967,"long":-0.299299},"geometry":{"type":"Point","coordinates":[-0.299299,51.426967]}},{"type":"Feature","properties":{"oid_":120810,"pubname":"The Castle Public House","streetaddr":"The Castle, King Charles Road, Surbiton","postcode":"KT5 8QJ","easting":518869,"northing":166998,"lat":51.389584,"long":-0.29301},"geometry":{"type":"Point","coordinates":[-0.29301,51.389584]}},{"type":"Feature","properties":{"oid_":120812,"pubname":"The Chessington Oak","streetaddr":"Blackamoors Head, 116 Moor Lane, Chessington","postcode":"KT9 2AR","easting":518897,"northing":164020,"lat":51.362813,"long":-0.293603},"geometry":{"type":"Point","coordinates":[-0.293603,51.362813]}},{"type":"Feature","properties":{"oid_":120813,"pubname":"The Cocoanut","streetaddr":"16 Mill Street, Kingston Upon Thames","postcode":"KT1 2RF","easting":518443,"northing":168855,"lat":51.406363,"long":-0.29851},"geometry":{"type":"Point","coordinates":[-0.29851,51.406363]}},{"type":"Feature","properties":{"oid_":120817,"pubname":"The Cricketers Public House","streetaddr":"The Cricketers, Fairfield South, Kingston Upon Thames","postcode":"KT1 2UL","easting":518566,"northing":169005,"lat":51.407686,"long":-0.296693},"geometry":{"type":"Point","coordinates":[-0.296693,51.407686]}},{"type":"Feature","properties":{"oid_":120822,"pubname":"The Druids Head","streetaddr":"3 Market Place, Kingston Upon Thames","postcode":"KT1 1JT","easting":517874,"northing":169150,"lat":51.409133,"long":-0.306589},"geometry":{"type":"Point","coordinates":[-0.306589,51.409133]}},{"type":"Feature","properties":{"oid_":120823,"pubname":"The Duke of Buckingham","streetaddr":"104 Villiers Road, Kingston Upon Thames, Kingston Upon Thames","postcode":"KT1 3BB","easting":518708,"northing":168434,"lat":51.402515,"long":-0.294843},"geometry":{"type":"Point","coordinates":[-0.294843,51.402515]}},{"type":"Feature","properties":{"oid_":120825,"pubname":"The Fighting Cocks","streetaddr":"56 Old London Road, Kingston Upon Thames","postcode":"KT2 6QA","easting":518471,"northing":169337,"lat":51.410689,"long":-0.297947},"geometry":{"type":"Point","coordinates":[-0.297947,51.410689]}},{"type":"Feature","properties":{"oid_":120829,"pubname":"The Fox & Hounds","streetaddr":"The Fox And Hounds, 60 Portsmouth Road, Surbiton","postcode":"KT6 4HS","easting":517546,"northing":167664,"lat":51.395836,"long":-0.311795},"geometry":{"type":"Point","coordinates":[-0.311795,51.395836]}},{"type":"Feature","properties":{"oid_":120835,"pubname":"The Gazebo","streetaddr":"The Gazebo, Riverside Walk, Kingston Upon Thames","postcode":"KT1 1QN","easting":517791,"northing":169330,"lat":51.410768,"long":-0.307722},"geometry":{"type":"Point","coordinates":[-0.307722,51.410768]}},{"type":"Feature","properties":{"oid_":120836,"pubname":"The Glass House","streetaddr":"14 Coombe Road, New Malden","postcode":"KT3 4QE","easting":521306,"northing":168713,"lat":51.404482,"long":-0.257417},"geometry":{"type":"Point","coordinates":[-0.257417,51.404482]}},{"type":"Feature","properties":{"oid_":120838,"pubname":"The Grove","streetaddr":"9 Grove Road, Surbiton","postcode":"KT6 4BX","easting":517847,"northing":167792,"lat":51.396933,"long":-0.307428},"geometry":{"type":"Point","coordinates":[-0.307428,51.396933]}},{"type":"Feature","properties":{"oid_":120839,"pubname":"The Hippodrome","streetaddr":"1 St James Road, Kingston Upon Thames","postcode":"KT1 2AH","easting":518016,"northing":169071,"lat":51.408393,"long":-0.304575},"geometry":{"type":"Point","coordinates":[-0.304575,51.408393]}},{"type":"Feature","properties":{"oid_":120844,"pubname":"The Lamb Inn","streetaddr":"The Lamb Inn, 73 Brighton Road, Surbiton","postcode":"KT6 5NF","easting":517537,"northing":167262,"lat":51.392225,"long":-0.312057},"geometry":{"type":"Point","coordinates":[-0.312057,51.392225]}},{"type":"Feature","properties":{"oid_":120849,"pubname":"The Lucky Rover","streetaddr":"312 Hook Road, Chessington","postcode":"KT9 1NY","easting":517966,"northing":164581,"lat":51.36804,"long":-0.306784},"geometry":{"type":"Point","coordinates":[-0.306784,51.36804]}},{"type":"Feature","properties":{"oid_":120853,"pubname":"The New Prince","streetaddr":"Prince Of Wales, 117 Ewell Road, Surbiton","postcode":"KT6 6AL","easting":518550,"northing":166985,"lat":51.389534,"long":-0.297597},"geometry":{"type":"Point","coordinates":[-0.297597,51.389534]}},{"type":"Feature","properties":{"oid_":120854,"pubname":"The Norbiton & Dragon","streetaddr":"16 Clifton Road, Kingston Upon Thames","postcode":"KT2 6PW","easting":519112,"northing":169707,"lat":51.413881,"long":-0.288611},"geometry":{"type":"Point","coordinates":[-0.288611,51.413881]}},{"type":"Feature","properties":{"oid_":120855,"pubname":"The North Star","streetaddr":"The North Star, Hook Road, Chessington","postcode":"KT9 1EQ","easting":518082,"northing":165008,"lat":51.371863,"long":-0.304976},"geometry":{"type":"Point","coordinates":[-0.304976,51.371863]}},{"type":"Feature","properties":{"oid_":120856,"pubname":"The Old Moot House","streetaddr":"88 London Road, Kingston Upon Thames","postcode":"KT2 6PX","easting":518666,"northing":169305,"lat":51.410361,"long":-0.295155},"geometry":{"type":"Point","coordinates":[-0.295155,51.410361]}},{"type":"Feature","properties":{"oid_":120860,"pubname":"The Park Tavern","streetaddr":"19 New Road, Kingston Upon Thames","postcode":"KT2 6AP","easting":519153,"northing":170335,"lat":51.419516,"long":-0.287811},"geometry":{"type":"Point","coordinates":[-0.287811,51.419516]}},{"type":"Feature","properties":{"oid_":120861,"pubname":"The Plough","streetaddr":"The Plough, Church Road, Worcester Park","postcode":"KT4 7NT","easting":521773,"northing":166480,"lat":51.384305,"long":-0.251472},"geometry":{"type":"Point","coordinates":[-0.251472,51.384305]}},{"type":"Feature","properties":{"oid_":120863,"pubname":"The Pool Bar Ltd","streetaddr":"198 Cambridge Road, Kingston Upon Thames","postcode":"KT1 3LF","easting":519447,"northing":169002,"lat":51.407474,"long":-0.284033},"geometry":{"type":"Point","coordinates":[-0.284033,51.407474]}},{"type":"Feature","properties":{"oid_":120867,"pubname":"The Ram","streetaddr":"34 High Street, Kingston Upon Thames","postcode":"KT1 1HL","easting":517793,"northing":169045,"lat":51.408206,"long":-0.307788},"geometry":{"type":"Point","coordinates":[-0.307788,51.408206]}},{"type":"Feature","properties":{"oid_":120869,"pubname":"The Rhodrons Club","streetaddr":"The Rhodrons Club, Rhodrons Avenue, Chessington","postcode":"KT9 1BA","easting":518028,"northing":164407,"lat":51.366472,"long":-0.305951},"geometry":{"type":"Point","coordinates":[-0.305951,51.366472]}},{"type":"Feature","properties":{"oid_":120873,"pubname":"The Roundhouse","streetaddr":"Malden Golf Club, Traps Lane, New Malden","postcode":"KT3 4RS","easting":521221,"northing":169328,"lat":51.410028,"long":-0.258443},"geometry":{"type":"Point","coordinates":[-0.258443,51.410028]}},{"type":"Feature","properties":{"oid_":120874,"pubname":"The Royal Oak","streetaddr":"90 Coombe Road, New Malden","postcode":"KT3 4RD","easting":521237,"northing":169062,"lat":51.407625,"long":-0.258304},"geometry":{"type":"Point","coordinates":[-0.258304,51.407625]}},{"type":"Feature","properties":{"oid_":120875,"pubname":"The Royal Oak","streetaddr":"261 Ewell Road, Surbiton","postcode":"KT6 7AA","easting":518732,"northing":166525,"lat":51.385362,"long":-0.295136},"geometry":{"type":"Point","coordinates":[-0.295136,51.385362]}},{"type":"Feature","properties":{"oid_":120878,"pubname":"The Saucy Kettle","streetaddr":"7 - 9 Brighton Road, Surbiton","postcode":"KT6 5LX","easting":517746,"northing":167126,"lat":51.390968,"long":-0.3091},"geometry":{"type":"Point","coordinates":[-0.3091,51.390968]}},{"type":"Feature","properties":{"oid_":120883,"pubname":"The Surbiton Club","streetaddr":"34 St James Road, Surbiton","postcode":"KT6 4QL","easting":517901,"northing":167425,"lat":51.393624,"long":-0.306774},"geometry":{"type":"Point","coordinates":[-0.306774,51.393624]}},{"type":"Feature","properties":{"oid_":120884,"pubname":"The Surbiton Flyer","streetaddr":"84 Victoria Road, Surbiton","postcode":"KT6 4NS","easting":518011,"northing":167315,"lat":51.392612,"long":-0.30523},"geometry":{"type":"Point","coordinates":[-0.30523,51.392612]}},{"type":"Feature","properties":{"oid_":120886,"pubname":"The Victoria","streetaddr":"28 Victoria Road, Surbiton","postcode":"KT6 4JT","easting":517862,"northing":167255,"lat":51.392095,"long":-0.307391},"geometry":{"type":"Point","coordinates":[-0.307391,51.392095]}},{"type":"Feature","properties":{"oid_":120888,"pubname":"The Watchman","streetaddr":"Police Station, 184 High Street, New Malden","postcode":"KT3 4ES","easting":521470,"northing":168133,"lat":51.399226,"long":-0.255259},"geometry":{"type":"Point","coordinates":[-0.255259,51.399226]}},{"type":"Feature","properties":{"oid_":120890,"pubname":"The William Bourne","streetaddr":"The Bonesgate, 273 Moor Lane, Chessington","postcode":"KT9 2BQ","easting":519186,"northing":163998,"lat":51.362546,"long":-0.289462},"geometry":{"type":"Point","coordinates":[-0.289462,51.362546]}},{"type":"Feature","properties":{"oid_":120893,"pubname":"The Wych Elm Pub","streetaddr":"93 Elm Road, Kingston Upon Thames","postcode":"KT2 6HT","easting":518689,"northing":170026,"lat":51.416836,"long":-0.294584},"geometry":{"type":"Point","coordinates":[-0.294584,51.416836]}},{"type":"Feature","properties":{"oid_":120953,"pubname":"Waggon & Horses","streetaddr":"The Waggon And Horses, 1 Surbiton Hill Road, Surbiton","postcode":"KT6 4TW","easting":518248,"northing":168030,"lat":51.398989,"long":-0.301587},"geometry":{"type":"Point","coordinates":[-0.301587,51.398989]}},{"type":"Feature","properties":{"oid_":120970,"pubname":"Wheelwrights Arms","streetaddr":"60 Clarence Street, Kingston Upon Thames","postcode":"KT1 1NP","easting":518204,"northing":169314,"lat":51.410538,"long":-0.301792},"geometry":{"type":"Point","coordinates":[-0.301792,51.410538]}},{"type":"Feature","properties":{"oid_":120987,"pubname":"Willoughby Arms","streetaddr":"Willoughby Road, Kingston Upon Thames","postcode":"KT2 6LN","easting":518864,"northing":169885,"lat":51.415532,"long":-0.292116},"geometry":{"type":"Point","coordinates":[-0.292116,51.415532]}},{"type":"Feature","properties":{"oid_":120993,"pubname":"Woodies Freehouse","streetaddr":"Woodies, Thetford Road, New Malden","postcode":"KT3 5DX","easting":520644,"northing":167332,"lat":51.392212,"long":-0.267399},"geometry":{"type":"Point","coordinates":[-0.267399,51.392212]}},{"type":"Feature","properties":{"oid_":120994,"pubname":"Woody's","streetaddr":"5 Ram Passage, Kingston Upon Thames","postcode":"KT1 1HH","easting":517757,"northing":169005,"lat":51.407854,"long":-0.308319},"geometry":{"type":"Point","coordinates":[-0.308319,51.407854]}},{"type":"Feature","properties":{"oid_":121000,"pubname":"YMCA Hawker Centre","streetaddr":"British Aerospace Sports, Lower Ham Road, Kingston Upon Thames","postcode":"KT2 5BH","easting":517645,"northing":171125,"lat":51.426931,"long":-0.309225},"geometry":{"type":"Point","coordinates":[-0.309225,51.426931]}},{"type":"Feature","properties":{"oid_":125561,"pubname":"Club House","streetaddr":"Wimbledon Common Golf Club, Camp Road, Wimbledon, London","postcode":"SW19 4UW","easting":522970,"northing":171163,"lat":51.426143,"long":-0.232658},"geometry":{"type":"Point","coordinates":[-0.232658,51.426143]}},{"type":"Feature","properties":{"oid_":125665,"pubname":"Earl Beatty","streetaddr":"West Barnes Lane, New Malden","postcode":"KT3 6JF","easting":522665,"northing":167680,"lat":51.394898,"long":-0.238246},"geometry":{"type":"Point","coordinates":[-0.238246,51.394898]}},{"type":"Feature","properties":{"oid_":125819,"pubname":"Hemingways","streetaddr":"57 High Street, Wimbledon, London","postcode":"SW19 5EE","easting":523951,"northing":171123,"lat":51.42557,"long":-0.218569},"geometry":{"type":"Point","coordinates":[-0.218569,51.42557]}},{"type":"Feature","properties":{"oid_":125858,"pubname":"Irenes Home Kitchen","streetaddr":"Blagdon House, Old Emanuel School Playing Fields, Beverley Way, New Malden","postcode":"KT3 4PU","easting":522259,"northing":168464,"lat":51.40204,"long":-0.243809},"geometry":{"type":"Point","coordinates":[-0.243809,51.40204]}},{"type":"Feature","properties":{"oid_":125995,"pubname":"LSGC (Catering)","streetaddr":"Club House, London Scottish Golf Club, Wimbledon, London","postcode":"SW19 5NQ","easting":523423,"northing":172396,"lat":51.437126,"long":-0.225716},"geometry":{"type":"Point","coordinates":[-0.225716,51.437126]}},{"type":"Feature","properties":{"oid_":126144,"pubname":"Old Emanuel Association","streetaddr":"Blagdon House, Old Emanuel School Playing Fields, Beverley Way, New Malden","postcode":"KT3 4PU","easting":522259,"northing":168464,"lat":51.40204,"long":-0.243809},"geometry":{"type":"Point","coordinates":[-0.243809,51.40204]}},{"type":"Feature","properties":{"oid_":126254,"pubname":"Raynes Park Sports & Social Club","streetaddr":"Raynes Park Sports Ground, Taunton Avenue, Raynes Park, London","postcode":"SW20 0BH","easting":522723,"northing":169187,"lat":51.408437,"long":-0.236892},"geometry":{"type":"Point","coordinates":[-0.236892,51.408437]}},{"type":"Feature","properties":{"oid_":126255,"pubname":"Raynes Park Tavern","streetaddr":"32 Coombe Lane, Raynes Park, London","postcode":"SW20 0LA","easting":523126,"northing":169335,"lat":51.409681,"long":-0.231049},"geometry":{"type":"Point","coordinates":[-0.231049,51.409681]}},{"type":"Feature","properties":{"oid_":126256,"pubname":"Raynes Park Vale Sports & Social Club","streetaddr":"Raynes Park Vale Football Club, Prince Georges Playing Fields, Grand Drive, Raynes Park","postcode":"SW20 9NB","easting":523439,"northing":167860,"lat":51.396347,"long":-0.227064},"geometry":{"type":"Point","coordinates":[-0.227064,51.396347]}},{"type":"Feature","properties":{"oid_":126289,"pubname":"Royal Wimbledon Golf Club","streetaddr":"29 Camp Road, Wimbledon, London","postcode":"SW19 4UW","easting":522970,"northing":171163,"lat":51.426143,"long":-0.232658},"geometry":{"type":"Point","coordinates":[-0.232658,51.426143]}},{"type":"Feature","properties":{"oid_":126352,"pubname":"Ski Club Of Great Britain","streetaddr":"57-63 Church Road, Wimbledon Village, London","postcode":"SW19 5SB","easting":524084,"northing":171260,"lat":51.426772,"long":-0.216608},"geometry":{"type":"Point","coordinates":[-0.216608,51.426772]}},{"type":"Feature","properties":{"oid_":126374,"pubname":"Southey Bowling Club","streetaddr":"559 Kingston Road, Raynes Park, London","postcode":"SW20 8SF","easting":523945,"northing":169488,"lat":51.410878,"long":-0.219226},"geometry":{"type":"Point","coordinates":[-0.219226,51.410878]}},{"type":"Feature","properties":{"oid_":126438,"pubname":"Swan Hotel Public House","streetaddr":"89 Ridgway, Wimbledon, London","postcode":"SW19 4SU","easting":523796,"northing":170586,"lat":51.420778,"long":-0.220985},"geometry":{"type":"Point","coordinates":[-0.220985,51.420778]}},{"type":"Feature","properties":{"oid_":126485,"pubname":"The Crooked Billet","streetaddr":"14-15 Crooked Billet, Wimbledon, London","postcode":"SW19 4RQ","easting":523287,"northing":170632,"lat":51.421302,"long":-0.228285},"geometry":{"type":"Point","coordinates":[-0.228285,51.421302]}},{"type":"Feature","properties":{"oid_":126490,"pubname":"The Dog And Fox","streetaddr":"24 High Street, Wimbledon, London","postcode":"SW19 5DX","easting":524088,"northing":171022,"lat":51.424633,"long":-0.216635},"geometry":{"type":"Point","coordinates":[-0.216635,51.424633]}},{"type":"Feature","properties":{"oid_":126492,"pubname":"The Edward Rayne Public House","streetaddr":"8 Coombe Lane, Raynes Park, London","postcode":"SW20 8ND","easting":523265,"northing":169348,"lat":51.409767,"long":-0.229047},"geometry":{"type":"Point","coordinates":[-0.229047,51.409767]}},{"type":"Feature","properties":{"oid_":126495,"pubname":"The Fox and Grapes PH","streetaddr":"10 Camp Road, Wimbledon, London","postcode":"SW19 4UN","easting":523105,"northing":171217,"lat":51.426599,"long":-0.230698},"geometry":{"type":"Point","coordinates":[-0.230698,51.426599]}},{"type":"Feature","properties":{"oid_":126523,"pubname":"The Morden Brook Public House","streetaddr":"Lower Morden Lane, Morden","postcode":"SM4 4SS","easting":523890,"northing":167261,"lat":51.390865,"long":-0.220793},"geometry":{"type":"Point","coordinates":[-0.220793,51.390865]}},{"type":"Feature","properties":{"oid_":126634,"pubname":"West Wimbledon Bowling Club","streetaddr":"55 Durham Road, West Wimbledon, London","postcode":"SW20 0DE","easting":522916,"northing":169639,"lat":51.412458,"long":-0.233962},"geometry":{"type":"Point","coordinates":[-0.233962,51.412458]}},{"type":"Feature","properties":{"oid_":126636,"pubname":"Westside Lawn Tennis Club","streetaddr":"20 Woodhayes Road, West Wimbledon, London","postcode":"SW19 4RG","easting":523232,"northing":170371,"lat":51.418968,"long":-0.229166},"geometry":{"type":"Point","coordinates":[-0.229166,51.418968]}},{"type":"Feature","properties":{"oid_":126637,"pubname":"Westside Lawn Tennis Club","streetaddr":"20 Woodhayes Road, West Wimbledon, London","postcode":"SW19 4RG","easting":523232,"northing":170371,"lat":51.418968,"long":-0.229166},"geometry":{"type":"Point","coordinates":[-0.229166,51.418968]}},{"type":"Feature","properties":{"oid_":126682,"pubname":"Wimbledon Village Club","streetaddr":"26 Lingfield Road, Wimbledon, London","postcode":"SW19 4QD","easting":524031,"northing":170917,"lat":51.423701,"long":-0.21749},"geometry":{"type":"Point","coordinates":[-0.21749,51.423701]}},{"type":"Feature","properties":{"oid_":130318,"pubname":"Amida at David Lloyd","streetaddr":"Staines Road, Twickenham","postcode":"TW2 5JD","easting":513438,"northing":172267,"lat":51.438052,"long":-0.369345},"geometry":{"type":"Point","coordinates":[-0.369345,51.438052]}},{"type":"Feature","properties":{"oid_":130393,"pubname":"Bloated Mallard TW12","streetaddr":"147 High Street, Hampton Hill","postcode":"TW12 1NJ","easting":514347,"northing":170976,"lat":51.426266,"long":-0.356704},"geometry":{"type":"Point","coordinates":[-0.356704,51.426266]}},{"type":"Feature","properties":{"oid_":130417,"pubname":"Brouge Bistros Ltd","streetaddr":"The Old Goat, 241 Hampton Road, Twickenham","postcode":"TW2 5NG","easting":514786,"northing":172140,"lat":51.436639,"long":-0.350001},"geometry":{"type":"Point","coordinates":[-0.350001,51.436639]}},{"type":"Feature","properties":{"oid_":130508,"pubname":"Chicago Rib Shack","streetaddr":"29-31 York Street, Twickenham","postcode":"TW1 3JZ","easting":516307,"northing":173371,"lat":51.447393,"long":-0.327725},"geometry":{"type":"Point","coordinates":[-0.327725,51.447393]}},{"type":"Feature","properties":{"oid_":130513,"pubname":"Chop and Chip","streetaddr":"The Swan, 22 High Street, Hampton Wick","postcode":"KT1 4DB","easting":517553,"northing":169568,"lat":51.412956,"long":-0.311064},"geometry":{"type":"Point","coordinates":[-0.311064,51.412956]}},{"type":"Feature","properties":{"oid_":130674,"pubname":"Halfway House","streetaddr":"Richmond Park Golf Course, Norstead Place","postcode":"SW15 3SA","easting":522249,"northing":172921,"lat":51.442098,"long":-0.242416},"geometry":{"type":"Point","coordinates":[-0.242416,51.442098]}},{"type":"Feature","properties":{"oid_":130683,"pubname":"Hampton and Richmond Football Club","streetaddr":"Hampton Football Club, Station Road, Hampton","postcode":"TW12 2BX","easting":513909,"northing":169597,"lat":51.41396,"long":-0.363429},"geometry":{"type":"Point","coordinates":[-0.363429,51.41396]}},{"type":"Feature","properties":{"oid_":130688,"pubname":"Hampton Hill Cricket Club","streetaddr":"Cricket Ground, High Street, Hampton Hill","postcode":"TW12 1PD","easting":514343,"northing":170907,"lat":51.425647,"long":-0.356769},"geometry":{"type":"Point","coordinates":[-0.356769,51.425647]}},{"type":"Feature","properties":{"oid_":130695,"pubname":"Hampton Sailing Club","streetaddr":"Hampton Sailing Club Benns Isl, Thames Street, Hampton","postcode":"TW12 2EW","easting":513893,"northing":169503,"lat":51.413119,"long":-0.363704},"geometry":{"type":"Point","coordinates":[-0.363704,51.413119]}},{"type":"Feature","properties":{"oid_":130697,"pubname":"Hampton Social Club","streetaddr":"26 Ashley Road, Hampton","postcode":"TW12 2JA","easting":513353,"northing":169858,"lat":51.416417,"long":-0.371337},"geometry":{"type":"Point","coordinates":[-0.371337,51.416417]}},{"type":"Feature","properties":{"oid_":130702,"pubname":"Hampton Wick Royal Cricket Club","streetaddr":"Hampton Wick Royal Cricket Club, Park Road, Hampton Wick","postcode":"KT1 4AZ","easting":517126,"northing":169454,"lat":51.41202,"long":-0.317238},"geometry":{"type":"Point","coordinates":[-0.317238,51.41202]}},{"type":"Feature","properties":{"oid_":130704,"pubname":"Hampton Youth Project","streetaddr":"32 Tangley Park Road, Hampton","postcode":"TW12 3YH","easting":512840,"northing":170939,"lat":51.426235,"long":-0.378368},"geometry":{"type":"Point","coordinates":[-0.378368,51.426235]}},{"type":"Feature","properties":{"oid_":130705,"pubname":"Hand & Flower","streetaddr":"The Hand And Flower, Upper Ham Road, Ham","postcode":"TW10 5LA","easting":517820,"northing":171786,"lat":51.432835,"long":-0.306489},"geometry":{"type":"Point","coordinates":[-0.306489,51.432835]}},{"type":"Feature","properties":{"oid_":130835,"pubname":"La Cloche at The Lion","streetaddr":"The Lion, 27 Wick Road, Teddington","postcode":"TW11 9DN","easting":517008,"northing":170133,"lat":51.418147,"long":-0.318711},"geometry":{"type":"Point","coordinates":[-0.318711,51.418147]}},{"type":"Feature","properties":{"oid_":130949,"pubname":"Metropolitan Water Board Club","streetaddr":"3 Ashley Road, Hampton","postcode":"TW12 2JA","easting":513353,"northing":169858,"lat":51.416417,"long":-0.371337},"geometry":{"type":"Point","coordinates":[-0.371337,51.416417]}},{"type":"Feature","properties":{"oid_":131029,"pubname":"NPL Sports Club","streetaddr":"The Pavillion Npl Sports Groun, Queens Road, Teddington","postcode":"TW11 0LZ","easting":515688,"northing":170618,"lat":51.422777,"long":-0.337527},"geometry":{"type":"Point","coordinates":[-0.337527,51.422777]}},{"type":"Feature","properties":{"oid_":131124,"pubname":"Prince Of Wales","streetaddr":"Prince Of Wales, 136 Hampton Road, Twickenham","postcode":"TW2 5QR","easting":514875,"northing":172433,"lat":51.439246,"long":-0.348627},"geometry":{"type":"Point","coordinates":[-0.348627,51.439246]}},{"type":"Feature","properties":{"oid_":131185,"pubname":"Richmond Golf Club","streetaddr":"Sudbrook Lane, Petersham","postcode":"TW10 7AT","easting":518152,"northing":172943,"lat":51.443174,"long":-0.30133},"geometry":{"type":"Point","coordinates":[-0.30133,51.443174]}},{"type":"Feature","properties":{"oid_":131192,"pubname":"Rileys","streetaddr":"1 Heath Road, Twickenham","postcode":"TW1 4AW","easting":515978,"northing":173093,"lat":51.444962,"long":-0.332548},"geometry":{"type":"Point","coordinates":[-0.332548,51.444962]}},{"type":"Feature","properties":{"oid_":131209,"pubname":"Royal British Legion (Twickenham) Limited","streetaddr":"95 Popes Grove, Twickenham","postcode":"TW1 4JT","easting":515866,"northing":172769,"lat":51.442073,"long":-0.334265},"geometry":{"type":"Point","coordinates":[-0.334265,51.442073]}},{"type":"Feature","properties":{"oid_":131210,"pubname":"Royal British Legion Club Ltd","streetaddr":"135 High Street, Teddington","postcode":"TW11 8HH","easting":516418,"northing":171191,"lat":51.427777,"long":-0.326844},"geometry":{"type":"Point","coordinates":[-0.326844,51.427777]}},{"type":"Feature","properties":{"oid_":131213,"pubname":"Royal Canoe Club","streetaddr":"Royal Canoe Club, Trowlock Island, Teddington","postcode":"TW11 9QY","easting":517697,"northing":170734,"lat":51.423406,"long":-0.308607},"geometry":{"type":"Point","coordinates":[-0.308607,51.423406]}},{"type":"Feature","properties":{"oid_":131356,"pubname":"Strawberry Hill Golf Club","streetaddr":"Strawberry Hill Golf Club, Wellesley Road, Twickenham","postcode":"TW2 5SD","easting":515438,"northing":172331,"lat":51.438233,"long":-0.340563},"geometry":{"type":"Point","coordinates":[-0.340563,51.438233]}},{"type":"Feature","properties":{"oid_":131394,"pubname":"Tamesis Club","streetaddr":"The Tamesis Club, Trowlock Way, Teddington","postcode":"TW11 9QY","easting":517697,"northing":170734,"lat":51.423406,"long":-0.308608},"geometry":{"type":"Point","coordinates":[-0.308608,51.423406]}},{"type":"Feature","properties":{"oid_":131408,"pubname":"Teddington Arms","streetaddr":"38-40 High Street, Teddington","postcode":"TW11 8EW","easting":516018,"northing":171098,"lat":51.427033,"long":-0.332625},"geometry":{"type":"Point","coordinates":[-0.332625,51.427033]}},{"type":"Feature","properties":{"oid_":131411,"pubname":"Teddington Constitutional Club Ltd","streetaddr":"5 Stanley Road, Teddington","postcode":"TW11 8TP","easting":515348,"northing":171214,"lat":51.428212,"long":-0.34222},"geometry":{"type":"Point","coordinates":[-0.34222,51.428212]}},{"type":"Feature","properties":{"oid_":131437,"pubname":"Thai @The Albert","streetaddr":"Prince Albert, 30 Hampton Road, Twickenham","postcode":"TW2 5QB","easting":515149,"northing":172743,"lat":51.441977,"long":-0.344585},"geometry":{"type":"Point","coordinates":[-0.344585,51.441977]}},{"type":"Feature","properties":{"oid_":131443,"pubname":"Thames Motor Yacht Club","streetaddr":"Thames Motor Yacht Club, Hampton Court Road, Hampton","postcode":"KT8 9BW","easting":515306,"northing":168698,"lat":51.405598,"long":-0.343642},"geometry":{"type":"Point","coordinates":[-0.343642,51.405598]}},{"type":"Feature","properties":{"oid_":131445,"pubname":"Thames Young Mariners","streetaddr":"Thames Young Mariners Base, Riverside Drive, Ham","postcode":"TW10 7RX","easting":516372,"northing":172297,"lat":51.437727,"long":-0.327143},"geometry":{"type":"Point","coordinates":[-0.327143,51.437727]}},{"type":"Feature","properties":{"oid_":131446,"pubname":"The Abercorn Arms","streetaddr":"Abercorn Arms, 76-78 Church Road, Teddington","postcode":"TW11 8EY","easting":515617,"northing":171288,"lat":51.428822,"long":-0.338329},"geometry":{"type":"Point","coordinates":[-0.338329,51.428822]}},{"type":"Feature","properties":{"oid_":131447,"pubname":"The Adelaide","streetaddr":"The Adelaide, 57 Park Road, Teddington","postcode":"TW11 0AU","easting":515890,"northing":170751,"lat":51.423931,"long":-0.334579},"geometry":{"type":"Point","coordinates":[-0.334579,51.423931]}},{"type":"Feature","properties":{"oid_":131451,"pubname":"The Albany","streetaddr":"The Albany Public House, Queens Road, Twickenham","postcode":"TW1 4EZ","easting":516000,"northing":173458,"lat":51.448229,"long":-0.332112},"geometry":{"type":"Point","coordinates":[-0.332112,51.448229]}},{"type":"Feature","properties":{"oid_":131455,"pubname":"The Anglers","streetaddr":"Anglers Hotel, 3 Broom Road, Teddington","postcode":"TW11 9NR","easting":516722,"northing":171361,"lat":51.429252,"long":-0.322417},"geometry":{"type":"Point","coordinates":[-0.322417,51.429252]}},{"type":"Feature","properties":{"oid_":131458,"pubname":"The Barmy Arms","streetaddr":"The Barmy Arms, The Embankment, Twickenham","postcode":"TW1 3DU","easting":516420,"northing":173278,"lat":51.446525,"long":-0.32613},"geometry":{"type":"Point","coordinates":[-0.32613,51.446525]}},{"type":"Feature","properties":{"oid_":131462,"pubname":"The Bear","streetaddr":"26-28 York Street, Twickenham","postcode":"TW1 3LJ","easting":516358,"northing":173377,"lat":51.447428,"long":-0.32699},"geometry":{"type":"Point","coordinates":[-0.32699,51.447428]}},{"type":"Feature","properties":{"oid_":131464,"pubname":"The Bell Inn","streetaddr":"The Bell Inn, 8 Thames Street, Hampton","postcode":"TW12 2EA","easting":514017,"northing":169497,"lat":51.41304,"long":-0.361909},"geometry":{"type":"Point","coordinates":[-0.361909,51.41304]}},{"type":"Feature","properties":{"oid_":131467,"pubname":"The Bloomsbury","streetaddr":"The Bloomsbury, 209 Staines Road, Twickenham","postcode":"TW2 5BB","easting":514633,"northing":172740,"lat":51.442063,"long":-0.352007},"geometry":{"type":"Point","coordinates":[-0.352007,51.442063]}},{"type":"Feature","properties":{"oid_":131475,"pubname":"The Builders Arms","streetaddr":"The Builders Arms, 38 Field Lane, Teddington","postcode":"TW11 9AS","easting":516173,"northing":170937,"lat":51.425554,"long":-0.33045},"geometry":{"type":"Point","coordinates":[-0.33045,51.425554]}},{"type":"Feature","properties":{"oid_":131478,"pubname":"The Cabbage Patch Public House","streetaddr":"67 London Road, Twickenham","postcode":"TW1 3SZ","easting":516185,"northing":173460,"lat":51.448209,"long":-0.329451},"geometry":{"type":"Point","coordinates":[-0.329451,51.448209]}},{"type":"Feature","properties":{"oid_":131493,"pubname":"The Clock House Pub","streetaddr":"69 High Street, Teddington","postcode":"TW11 8HA","easting":516119,"northing":171143,"lat":51.427407,"long":-0.331159},"geometry":{"type":"Point","coordinates":[-0.331159,51.427407]}},{"type":"Feature","properties":{"oid_":131514,"pubname":"The Dysart Arms","streetaddr":"135 Petersham Road, Petersham","postcode":"TW10 7AA","easting":518127,"northing":173310,"lat":51.44646,"long":-0.301568},"geometry":{"type":"Point","coordinates":[-0.301568,51.44646]}},{"type":"Feature","properties":{"oid_":131516,"pubname":"The Eel Pie","streetaddr":"Flat, 9-11 Church Street, Twickenham","postcode":"TW1 3NJ","easting":516352,"northing":173320,"lat":51.446916,"long":-0.327094},"geometry":{"type":"Point","coordinates":[-0.327094,51.446916]}},{"type":"Feature","properties":{"oid_":131522,"pubname":"The Foresters Arms","streetaddr":"Foresters Arms, High Street, Hampton Wick","postcode":"KT1 4DG","easting":517445,"northing":169684,"lat":51.414021,"long":-0.312578},"geometry":{"type":"Point","coordinates":[-0.312578,51.414021]}},{"type":"Feature","properties":{"oid_":131523,"pubname":"The Fountain","streetaddr":"The Fountain Beefeater, 152 Sixth Cross Road, Twickenham","postcode":"TW2 5PE","easting":514156,"northing":172322,"lat":51.438402,"long":-0.359002},"geometry":{"type":"Point","coordinates":[-0.359002,51.438402]}},{"type":"Feature","properties":{"oid_":131524,"pubname":"The Fox","streetaddr":"The Fox, 39 Church Street, Twickenham","postcode":"TW1 3NR","easting":516352,"northing":173292,"lat":51.446665,"long":-0.327104},"geometry":{"type":"Point","coordinates":[-0.327104,51.446665]}},{"type":"Feature","properties":{"oid_":131525,"pubname":"The Fox & Duck","streetaddr":"Fox And Duck, 194 Petersham Road, Petersham","postcode":"TW10 7AD","easting":518046,"northing":173164,"lat":51.445165,"long":-0.302782},"geometry":{"type":"Point","coordinates":[-0.302782,51.445165]}},{"type":"Feature","properties":{"oid_":131526,"pubname":"The Fulwell Golf Club","streetaddr":"Fulwell Golf Club, Wellington Road, Hampton","postcode":"TW12 1JY","easting":514606,"northing":171638,"lat":51.432173,"long":-0.352751},"geometry":{"type":"Point","coordinates":[-0.352751,51.432173]}},{"type":"Feature","properties":{"oid_":131529,"pubname":"The George","streetaddr":"The George Hotel, 32 King Street, Twickenham","postcode":"TW1 3SN","easting":516226,"northing":173264,"lat":51.446439,"long":-0.328925},"geometry":{"type":"Point","coordinates":[-0.328925,51.446439]}},{"type":"Feature","properties":{"oid_":131541,"pubname":"The Ham Brewery Tap","streetaddr":"The Ham Brewery Tap, 4-6 Ham Street, Ham","postcode":"TW10 7HT","easting":517448,"northing":172228,"lat":51.436885,"long":-0.311692},"geometry":{"type":"Point","coordinates":[-0.311692,51.436885]}},{"type":"Feature","properties":{"oid_":131550,"pubname":"The Hogarth","streetaddr":"The Hogarth, 58 Broad Street, Teddington","postcode":"TW11 8QY","easting":515722,"northing":170965,"lat":51.425889,"long":-0.336925},"geometry":{"type":"Point","coordinates":[-0.336925,51.425889]}},{"type":"Feature","properties":{"oid_":131558,"pubname":"The Jolly Coopers","streetaddr":"Jolly Coopers, 16 High Street, Hampton","postcode":"TW12 2SJ","easting":514060,"northing":169621,"lat":51.414145,"long":-0.361251},"geometry":{"type":"Point","coordinates":[-0.361251,51.414145]}},{"type":"Feature","properties":{"oid_":131563,"pubname":"The King's Arms","streetaddr":"Kings Arms Hotel, Hampton Court Road, Hampton","postcode":"KT8 9DD","easting":515796,"northing":168791,"lat":51.406325,"long":-0.336571},"geometry":{"type":"Point","coordinates":[-0.336571,51.406325]}},{"type":"Feature","properties":{"oid_":131575,"pubname":"The Masons Arms","streetaddr":"41 Walpole Road, Teddington","postcode":"TW11 8PJ","easting":515602,"northing":171092,"lat":51.427064,"long":-0.338608},"geometry":{"type":"Point","coordinates":[-0.338608,51.427064]}},{"type":"Feature","properties":{"oid_":131577,"pubname":"The Misty Moon","streetaddr":"53-57 London Road, Twickenham","postcode":"TW1 3SZ","easting":516185,"northing":173460,"lat":51.448209,"long":-0.329451},"geometry":{"type":"Point","coordinates":[-0.329451,51.448209]}},{"type":"Feature","properties":{"oid_":131582,"pubname":"The New Inn","streetaddr":"The New Inn, 345 Petersham Road, Ham","postcode":"TW10 7DB","easting":517921,"northing":172272,"lat":51.437192,"long":-0.304876},"geometry":{"type":"Point","coordinates":[-0.304876,51.437192]}},{"type":"Feature","properties":{"oid_":131584,"pubname":"The Old Kings Head","streetaddr":"The Old Kings Head, Hampton Court Road, Hampton","postcode":"KT1 4AE","easting":517495,"northing":169339,"lat":51.41091,"long":-0.311973},"geometry":{"type":"Point","coordinates":[-0.311973,51.41091]}},{"type":"Feature","properties":{"oid_":131601,"pubname":"The Prince Albert","streetaddr":"Prince Albert, 30 Hampton Road, Twickenham","postcode":"TW2 5QB","easting":515149,"northing":172743,"lat":51.441977,"long":-0.344585},"geometry":{"type":"Point","coordinates":[-0.344585,51.441977]}},{"type":"Feature","properties":{"oid_":131603,"pubname":"The Prince Blucher","streetaddr":"Prince Blucher, 124 The Green, Twickenham","postcode":"TW2 5AG","easting":515217,"northing":173026,"lat":51.444506,"long":-0.343515},"geometry":{"type":"Point","coordinates":[-0.343515,51.444506]}},{"type":"Feature","properties":{"oid_":131606,"pubname":"The Railway Bell","streetaddr":"The Railway Bell, Station Road, Hampton","postcode":"TW12 2AP","easting":513393,"northing":169808,"lat":51.41596,"long":-0.370793},"geometry":{"type":"Point","coordinates":[-0.370793,51.41596]}},{"type":"Feature","properties":{"oid_":131607,"pubname":"The Railway Pub & Dining Rooms","streetaddr":"The Railway, 3 Victoria Road, Teddington","postcode":"TW11 0BB","easting":516021,"northing":170758,"lat":51.423967,"long":-0.332694},"geometry":{"type":"Point","coordinates":[-0.332694,51.423967]}},{"type":"Feature","properties":{"oid_":131610,"pubname":"The Red Lion","streetaddr":"The Red Lion, 164 Stanley Road, Teddington","postcode":"TW11 8UD","easting":515137,"northing":171509,"lat":51.430897,"long":-0.345159},"geometry":{"type":"Point","coordinates":[-0.345159,51.430897]}},{"type":"Feature","properties":{"oid_":131620,"pubname":"The Rifleman","streetaddr":"The Rifleman, 7 Fourth Cross Road, Twickenham","postcode":"TW2 5EL","easting":514776,"northing":172632,"lat":51.441064,"long":-0.349986},"geometry":{"type":"Point","coordinates":[-0.349986,51.441064]}},{"type":"Feature","properties":{"oid_":131623,"pubname":"The Roebuck","streetaddr":"72 Hampton Road, Hampton Hill","postcode":"TW12 1JN","easting":514606,"northing":171288,"lat":51.429018,"long":-0.352865},"geometry":{"type":"Point","coordinates":[-0.352865,51.429018]}},{"type":"Feature","properties":{"oid_":131625,"pubname":"The Royal Oak","streetaddr":"45 Oak Avenue, Hampton","postcode":"TW12 3NR","easting":512647,"northing":170551,"lat":51.422786,"long":-0.381266},"geometry":{"type":"Point","coordinates":[-0.381266,51.422786]}},{"type":"Feature","properties":{"oid_":131637,"pubname":"The Star","streetaddr":"8 High Street, Hampton Hill","postcode":"TW12 1PD","easting":514343,"northing":170907,"lat":51.425647,"long":-0.356769},"geometry":{"type":"Point","coordinates":[-0.356769,51.425647]}},{"type":"Feature","properties":{"oid_":131641,"pubname":"The Sussex Arms","streetaddr":"The Sussex Arms, 15 Staines Road, Twickenham","postcode":"TW2 5BG","easting":515040,"northing":172974,"lat":51.444084,"long":-0.346078},"geometry":{"type":"Point","coordinates":[-0.346078,51.444084]}},{"type":"Feature","properties":{"oid_":131642,"pubname":"The Swan","streetaddr":"The Swan, 22 High Street, Hampton Wick","postcode":"KT1 4DB","easting":517553,"northing":169568,"lat":51.412956,"long":-0.311064},"geometry":{"type":"Point","coordinates":[-0.311064,51.412956]}},{"type":"Feature","properties":{"oid_":131648,"pubname":"The Tide End Cottage","streetaddr":"Tide End Cottage, 8 Ferry Road, Teddington","postcode":"TW11 9NN","easting":516636,"northing":171386,"lat":51.429485,"long":-0.323646},"geometry":{"type":"Point","coordinates":[-0.323646,51.429485]}},{"type":"Feature","properties":{"oid_":131660,"pubname":"The Waldegrave Arms","streetaddr":"Waldegrave Arms, 209-211 Waldegrave Road, Teddington","postcode":"TW11 8LX","easting":515579,"northing":171688,"lat":51.432416,"long":-0.338745},"geometry":{"type":"Point","coordinates":[-0.338745,51.432416]}},{"type":"Feature","properties":{"oid_":131664,"pubname":"The White Hart","streetaddr":"1 High Street, Hampton Wick","postcode":"KT1 4DA","easting":517554,"northing":169474,"lat":51.412111,"long":-0.311081},"geometry":{"type":"Point","coordinates":[-0.311081,51.412111]}},{"type":"Feature","properties":{"oid_":131669,"pubname":"The White Swan","streetaddr":"The White Swan, Riverside, Twickenham","postcode":"TW1 3DN","easting":516758,"northing":173357,"lat":51.447166,"long":-0.321243},"geometry":{"type":"Point","coordinates":[-0.321243,51.447166]}},{"type":"Feature","properties":{"oid_":131672,"pubname":"The Windmill","streetaddr":"80 Windmill Road, Hampton Hill","postcode":"TW12 1QU","easting":513958,"northing":171144,"lat":51.427855,"long":-0.362242},"geometry":{"type":"Point","coordinates":[-0.362242,51.427855]}},{"type":"Feature","properties":{"oid_":131673,"pubname":"The Winning Post","streetaddr":"The Winning Post, Chertsey Road, Twickenham","postcode":"TW2 6LS","easting":514335,"northing":173377,"lat":51.44784,"long":-0.356088},"geometry":{"type":"Point","coordinates":[-0.356088,51.44784]}},{"type":"Feature","properties":{"oid_":131674,"pubname":"The Worlds End","streetaddr":"88 Station Road, Hampton","postcode":"TW12 2AX","easting":513690,"northing":169719,"lat":51.4151,"long":-0.366538},"geometry":{"type":"Point","coordinates":[-0.366538,51.4151]}},{"type":"Feature","properties":{"oid_":131677,"pubname":"Three Kings","streetaddr":"42 Heath Road, Twickenham","postcode":"TW1 4BZ","easting":516080,"northing":173162,"lat":51.445561,"long":-0.331058},"geometry":{"type":"Point","coordinates":[-0.331058,51.445561]}},{"type":"Feature","properties":{"oid_":131715,"pubname":"Twickenham Club","streetaddr":"7 Church Street, Twickenham","postcode":"TW1 3NJ","easting":516352,"northing":173320,"lat":51.446917,"long":-0.327095},"geometry":{"type":"Point","coordinates":[-0.327095,51.446917]}},{"type":"Feature","properties":{"oid_":131716,"pubname":"Twickenham Cricket Club","streetaddr":"Twickenham Cricket Club Pavili, The Green, Twickenham","postcode":"TW2 5TU","easting":515419,"northing":172957,"lat":51.443845,"long":-0.340633},"geometry":{"type":"Point","coordinates":[-0.340633,51.443845]}},{"type":"Feature","properties":{"oid_":131724,"pubname":"Twickenham Rowing Club","streetaddr":"Twickenham Rowing Club, Eel Pie Island, Twickenham","postcode":"TW1 3DY","easting":516464,"northing":173148,"lat":51.445348,"long":-0.32554},"geometry":{"type":"Point","coordinates":[-0.32554,51.445348]}},{"type":"Feature","properties":{"oid_":135143,"pubname":"Lord Nelson","streetaddr":"837 London Road, North Cheam","postcode":"SM3 9DR","easting":524048,"northing":166094,"lat":51.380352,"long":-0.218931},"geometry":{"type":"Point","coordinates":[-0.218931,51.380352]}},{"type":"Feature","properties":{"oid_":135223,"pubname":"Nonsuch Inn","streetaddr":"552-556 London Road, North Cheam","postcode":"SM3 9AA","easting":523598,"northing":165168,"lat":51.372119,"long":-0.225716},"geometry":{"type":"Point","coordinates":[-0.225716,51.372119]}},{"type":"Feature","properties":{"oid_":135230,"pubname":"North End Tavern","streetaddr":"245 Cheam Common Road, Worcester Park","postcode":"KT4 8ST","easting":522813,"northing":165614,"lat":51.376298,"long":-0.236834},"geometry":{"type":"Point","coordinates":[-0.236834,51.376298]}},{"type":"Feature","properties":{"oid_":135311,"pubname":"Rumours Wine Bar","streetaddr":"25-27 Central Road, Worcester Park","postcode":"KT4 8EG","easting":522653,"northing":165698,"lat":51.377087,"long":-0.239103},"geometry":{"type":"Point","coordinates":[-0.239103,51.377087]}},{"type":"Feature","properties":{"oid_":135428,"pubname":"The Brook","streetaddr":"Midas Touch, 181 Central Road, Worcester Park","postcode":"KT4 8DR","easting":522301,"northing":165984,"lat":51.379742,"long":-0.244059},"geometry":{"type":"Point","coordinates":[-0.244059,51.379742]}},{"type":"Feature","properties":{"oid_":135455,"pubname":"The HG Wells","streetaddr":"101 Cheam Common Road, Worcester Park","postcode":"KT4 8TA","easting":523114,"northing":165277,"lat":51.373213,"long":-0.232628},"geometry":{"type":"Point","coordinates":[-0.232628,51.373213]}},{"type":"Feature","properties":{"oid_":240887,"pubname":"6 5HT","streetaddr":"Ditton and Hinchley Wood British Legion Club, Betts Way, Long Ditton","postcode":"KT6 5HT","easting":516912,"northing":166257,"lat":51.38333,"long":-0.321366},"geometry":{"type":"Point","coordinates":[-0.321366,51.38333]}},{"type":"Feature","properties":{"oid_":240897,"pubname":"Albion","streetaddr":"34-36 Bridge Road, East Molesey, Surrey","postcode":"KT8 9HA","easting":515274,"northing":168359,"lat":51.402558,"long":-0.344212},"geometry":{"type":"Point","coordinates":[-0.344212,51.402558]}},{"type":"Feature","properties":{"oid_":240940,"pubname":"Bell","streetaddr":"4 Bell Road, East Molesey, Surrey","postcode":"KT8 0SS","easting":514585,"northing":167812,"lat":51.397781,"long":-0.354289},"geometry":{"type":"Point","coordinates":[-0.354289,51.397781]}},{"type":"Feature","properties":{"oid_":240951,"pubname":"Bisoux Lounge","streetaddr":"51 High Street, Esher, Surrey","postcode":"KT10 9RQ","easting":513925,"northing":164671,"lat":51.369682,"long":-0.364778},"geometry":{"type":"Point","coordinates":[-0.364778,51.369682]}},{"type":"Feature","properties":{"oid_":241104,"pubname":"Ditton Football and Social Club","streetaddr":"Ditton Football and Social Club, Long Ditton Village Hall, 2 Ewell Road, Long Ditton","postcode":"KT6 5LE","easting":516714,"northing":166640,"lat":51.386813,"long":-0.324085},"geometry":{"type":"Point","coordinates":[-0.324085,51.386813]}},{"type":"Feature","properties":{"oid_":241111,"pubname":"East & West Molesey Cons W/mens Club","streetaddr":"94 Walton Road, East Molesey, Surrey","postcode":"KT8 0DL","easting":514611,"northing":168012,"lat":51.399573,"long":-0.353851},"geometry":{"type":"Point","coordinates":[-0.353851,51.399573]}},{"type":"Feature","properties":{"oid_":241120,"pubname":"Ember Sports Club","streetaddr":"Grove Way, Esher, Surrey","postcode":"KT10 8HL","easting":514341,"northing":166503,"lat":51.386064,"long":-0.35823},"geometry":{"type":"Point","coordinates":[-0.35823,51.386064]}},{"type":"Feature","properties":{"oid_":241126,"pubname":"Esher Bowling Club","streetaddr":"High Street, Esher, Surrey","postcode":"KT10 9RP","easting":514206,"northing":164702,"lat":51.369895,"long":-0.360734},"geometry":{"type":"Point","coordinates":[-0.360734,51.369895]}},{"type":"Feature","properties":{"oid_":241131,"pubname":"Esher Cricket Club","streetaddr":"47 New Road, Esher, Surrey","postcode":"KT10 9NU","easting":514531,"northing":164512,"lat":51.368131,"long":-0.356128},"geometry":{"type":"Point","coordinates":[-0.356128,51.368131]}},{"type":"Feature","properties":{"oid_":241133,"pubname":"Esher Rugby Club","streetaddr":"Esher Rugby Football Club, 369 Molesey Road, Walton-On-Thames","postcode":"KT12 3PF","easting":512181,"northing":165663,"lat":51.378936,"long":-0.389509},"geometry":{"type":"Point","coordinates":[-0.389509,51.378936]}},{"type":"Feature","properties":{"oid_":241169,"pubname":"George & Dragon","streetaddr":"George and Dragon Public House, High Street, Thames Ditton","postcode":"KT7 0RY","easting":516053,"northing":166987,"lat":51.390068,"long":-0.333466},"geometry":{"type":"Point","coordinates":[-0.333466,51.390068]}},{"type":"Feature","properties":{"oid_":241221,"pubname":"Hersham Bowls Club","streetaddr":"Coronation Recreation Ground, Molesey Road, Hersham","postcode":"KT12 4QZ","easting":512049,"northing":165098,"lat":51.373893,"long":-0.391582},"geometry":{"type":"Point","coordinates":[-0.391582,51.373893]}},{"type":"Feature","properties":{"oid_":241224,"pubname":"Hersham Golf Club","streetaddr":"Hersham Village Golf Club, Assher Road, Hersham","postcode":"KT12 4RA","easting":512149,"northing":165284,"lat":51.375536,"long":-0.390088},"geometry":{"type":"Point","coordinates":[-0.390088,51.375536]}},{"type":"Feature","properties":{"oid_":241253,"pubname":"Imber Court Sports Club","streetaddr":"Imber Court Sports Ground, Ember Lane, East Molesey","postcode":"KT8 0BT","easting":514899,"northing":167038,"lat":51.390761,"long":-0.350042},"geometry":{"type":"Point","coordinates":[-0.350042,51.390761]}},{"type":"Feature","properties":{"oid_":241259,"pubname":"Island Barn Reservoir Sailing Club","streetaddr":"Island Barn Sailing Club, Island Barn Reservoir, Ray Road","postcode":"KT8 2LF","easting":513576,"northing":167611,"lat":51.396177,"long":-0.368851},"geometry":{"type":"Point","coordinates":[-0.368851,51.396177]}},{"type":"Feature","properties":{"oid_":241294,"pubname":"Kingston Grammer Sports Field","streetaddr":"Kingston Grammar Sports Field, Ditton Fields, Summer Road","postcode":"KT7 0QQ","easting":516046,"northing":167383,"lat":51.393628,"long":-0.333437},"geometry":{"type":"Point","coordinates":[-0.333437,51.393628]}},{"type":"Feature","properties":{"oid_":241333,"pubname":"Long Ditton Cricket Club","streetaddr":"Betts Way, Long Ditton, Surbiton","postcode":"KT6 5HT","easting":516912,"northing":166257,"lat":51.38333,"long":-0.321366},"geometry":{"type":"Point","coordinates":[-0.321366,51.38333]}},{"type":"Feature","properties":{"oid_":241337,"pubname":"Lord Hotham","streetaddr":"360 Walton Road, West Molesey, Surrey","postcode":"KT8 2JE","easting":513803,"northing":168296,"lat":51.402288,"long":-0.36537},"geometry":{"type":"Point","coordinates":[-0.36537,51.402288]}},{"type":"Feature","properties":{"oid_":241340,"pubname":"Lower Green Sports/Social Club","streetaddr":"Lower Green Community Centre, Farm Road, Esher","postcode":"KT10 8AZ","easting":513524,"northing":165962,"lat":51.381356,"long":-0.370124},"geometry":{"type":"Point","coordinates":[-0.370124,51.381356]}},{"type":"Feature","properties":{"oid_":241342,"pubname":"Lynwood Sports & Social Club","streetaddr":"Lynwood Sports and Social Club, Lynwood Road, Thames Ditton","postcode":"KT7 0DN","easting":515768,"northing":165830,"lat":51.379718,"long":-0.337938},"geometry":{"type":"Point","coordinates":[-0.337938,51.379718]}},{"type":"Feature","properties":{"oid_":241363,"pubname":"Marney's Village Inn","streetaddr":"Marneys Village Inn, Alma Road, Esher","postcode":"KT10 8JN","easting":515052,"northing":166265,"lat":51.383782,"long":-0.348094},"geometry":{"type":"Point","coordinates":[-0.348094,51.383782]}},{"type":"Feature","properties":{"oid_":241364,"pubname":"Marquis of Granby","streetaddr":"Portsmouth Road, Esher, Surrey","postcode":"KT10 9AL","easting":514895,"northing":165662,"lat":51.378385,"long":-0.35053},"geometry":{"type":"Point","coordinates":[-0.35053,51.378385]}},{"type":"Feature","properties":{"oid_":241390,"pubname":"Molesey Boat Club","streetaddr":"Barge Walk, East Molesey, Surrey","postcode":"KT8 9AJ","easting":515115,"northing":168597,"lat":51.404729,"long":-0.34642},"geometry":{"type":"Point","coordinates":[-0.34642,51.404729]}},{"type":"Feature","properties":{"oid_":241396,"pubname":"Molesey Football Club","streetaddr":"412 Walton Road, West Molesey, Surrey","postcode":"KT8 2JG","easting":513669,"northing":168335,"lat":51.402665,"long":-0.367283},"geometry":{"type":"Point","coordinates":[-0.367283,51.402665]}},{"type":"Feature","properties":{"oid_":241453,"pubname":"Old Cranleighan Club","streetaddr":"Portsmouth Road, Thames Ditton, Surrey","postcode":"KT7 0HB","easting":515490,"northing":166081,"lat":51.382039,"long":-0.341848},"geometry":{"type":"Point","coordinates":[-0.341848,51.382039]}},{"type":"Feature","properties":{"oid_":241511,"pubname":"Poyntz Arms","streetaddr":"85 Walton Road, East Molesey, Surrey","postcode":"KT8 0DP","easting":514603,"northing":168062,"lat":51.400024,"long":-0.353964},"geometry":{"type":"Point","coordinates":[-0.353964,51.400024]}},{"type":"Feature","properties":{"oid_":241517,"pubname":"Prince of Wales","streetaddr":"23 Bridge Road, East Molesey, Surrey","postcode":"KT8 9EU","easting":515261,"northing":168390,"lat":51.402839,"long":-0.344403},"geometry":{"type":"Point","coordinates":[-0.344403,51.402839]}},{"type":"Feature","properties":{"oid_":241518,"pubname":"Prince of Wales","streetaddr":"Prince Of Wales, 48 West End Lane, Esher","postcode":"KT10 8LA","easting":512941,"northing":164087,"lat":51.364629,"long":-0.379093},"geometry":{"type":"Point","coordinates":[-0.379093,51.364629]}},{"type":"Feature","properties":{"oid_":241552,"pubname":"Royal British Legion Club","streetaddr":"St Andrews Hall, St Marys Road, East Molesey","postcode":"KT8 0ST","easting":514585,"northing":167942,"lat":51.398949,"long":-0.354261},"geometry":{"type":"Point","coordinates":[-0.354261,51.398949]}},{"type":"Feature","properties":{"oid_":241651,"pubname":"Surbiton Golf Club","streetaddr":"Woodstock Lane South, Chessington, Surrey","postcode":"KT9 1UG","easting":516732,"northing":164759,"lat":51.369904,"long":-0.324443},"geometry":{"type":"Point","coordinates":[-0.324443,51.369904]}},{"type":"Feature","properties":{"oid_":241653,"pubname":"Surbiton Hockey Club","streetaddr":"Sugden Road, Thames Ditton, Surrey","postcode":"KT7 0AE","easting":516697,"northing":166201,"lat":51.382871,"long":-0.324473},"geometry":{"type":"Point","coordinates":[-0.324473,51.382871]}},{"type":"Feature","properties":{"oid_":241674,"pubname":"Thames Ditton & Esher Golf Club","streetaddr":"Thames Ditton and Esher Golf Club, Portsmouth Road, Esher","postcode":"KT10 9AL","easting":514895,"northing":165661,"lat":51.378384,"long":-0.35053},"geometry":{"type":"Point","coordinates":[-0.35053,51.378384]}},{"type":"Feature","properties":{"oid_":241676,"pubname":"Thames Ditton Cricket Club","streetaddr":"Giggs Hill Road, Thames Ditton, Surrey","postcode":"KT7 0BT","easting":516213,"northing":166642,"lat":51.386934,"long":-0.331281},"geometry":{"type":"Point","coordinates":[-0.331281,51.386934]}},{"type":"Feature","properties":{"oid_":241680,"pubname":"Thames Ditton Lawn Tennis Club","streetaddr":"Weston Green Road, Thames Ditton, Surrey","postcode":"KT7 0HX","easting":515505,"northing":166767,"lat":51.388202,"long":-0.34141},"geometry":{"type":"Point","coordinates":[-0.34141,51.388202]}},{"type":"Feature","properties":{"oid_":241685,"pubname":"The Albany","streetaddr":"The Albany Public House, Queens Road, Thames Ditton","postcode":"KT7 0QY","easting":515842,"northing":167687,"lat":51.396402,"long":-0.336284},"geometry":{"type":"Point","coordinates":[-0.336284,51.396402]}},{"type":"Feature","properties":{"oid_":241686,"pubname":"The Albert Arms","streetaddr":"82 High Street, Esher, Surrey","postcode":"KT10 9QS","easting":513823,"northing":164630,"lat":51.369325,"long":-0.366257},"geometry":{"type":"Point","coordinates":[-0.366257,51.369325]}},{"type":"Feature","properties":{"oid_":241687,"pubname":"The Angel Inn","streetaddr":"The Angel, Portsmouth Road, Thames Ditton","postcode":"KT7 0AU","easting":516372,"northing":166495,"lat":51.38558,"long":-0.329045},"geometry":{"type":"Point","coordinates":[-0.329045,51.38558]}},{"type":"Feature","properties":{"oid_":241690,"pubname":"The Bear","streetaddr":"The Bear Hotel and Public House, 71 High Street, Esher","postcode":"KT10 9RQ","easting":513925,"northing":164671,"lat":51.369682,"long":-0.364778},"geometry":{"type":"Point","coordinates":[-0.364778,51.369682]}},{"type":"Feature","properties":{"oid_":241695,"pubname":"The Cannon Public House","streetaddr":"The Cannon, 17 High Street, West Molesey","postcode":"KT8 2NA","easting":513448,"northing":168266,"lat":51.402089,"long":-0.370481},"geometry":{"type":"Point","coordinates":[-0.370481,51.402089]}},{"type":"Feature","properties":{"oid_":241700,"pubname":"The City Arms","streetaddr":"Portsmouth Road, Thames Ditton, Surrey","postcode":"KT7 0XE","easting":516813,"northing":167114,"lat":51.391053,"long":-0.322507},"geometry":{"type":"Point","coordinates":[-0.322507,51.391053]}},{"type":"Feature","properties":{"oid_":241709,"pubname":"The Ditton","streetaddr":"64 Ditton Hill Road, Long Ditton, Surbiton","postcode":"KT6 5JD","easting":517145,"northing":166241,"lat":51.383139,"long":-0.318025},"geometry":{"type":"Point","coordinates":[-0.318025,51.383139]}},{"type":"Feature","properties":{"oid_":241710,"pubname":"The Dittons Skiff & Punting Club","streetaddr":"Albany Cottage, 1 Albany Reach, Queens Road","postcode":"KT7 0QH","easting":515942,"northing":167737,"lat":51.396831,"long":-0.334816},"geometry":{"type":"Point","coordinates":[-0.334816,51.396831]}},{"type":"Feature","properties":{"oid_":241713,"pubname":"The Europa","streetaddr":"The Europa Public House, 171 Walton Road, East Molesey","postcode":"KT8 0DX","easting":514231,"northing":168176,"lat":51.401115,"long":-0.359259},"geometry":{"type":"Point","coordinates":[-0.359259,51.401115]}},{"type":"Feature","properties":{"oid_":241716,"pubname":"The Ferry","streetaddr":"Portsmouth Road, Thames Ditton, Surrey","postcode":"KT7 0XY","easting":516611,"northing":166948,"lat":51.389603,"long":-0.325463},"geometry":{"type":"Point","coordinates":[-0.325463,51.389603]}},{"type":"Feature","properties":{"oid_":241728,"pubname":"The Greyhound","streetaddr":"Weston Green, Thames Ditton, Surrey","postcode":"KT7 0JP","easting":515120,"northing":166027,"lat":51.381629,"long":-0.34718},"geometry":{"type":"Point","coordinates":[-0.34718,51.381629]}},{"type":"Feature","properties":{"oid_":241750,"pubname":"The Pavilion Sports & Fitness Club","streetaddr":"The Pavilion Sports and Fitness Club, Hurst Lane, East Molesey","postcode":"KT8 9DX","easting":514326,"northing":168686,"lat":51.405688,"long":-0.357743},"geometry":{"type":"Point","coordinates":[-0.357743,51.405688]}},{"type":"Feature","properties":{"oid_":241756,"pubname":"The Red Lion","streetaddr":"85 High Street, Thames Ditton, Surrey","postcode":"KT7 0SF","easting":516127,"northing":167154,"lat":51.391553,"long":-0.332349},"geometry":{"type":"Point","coordinates":[-0.332349,51.391553]}},{"type":"Feature","properties":{"oid_":241761,"pubname":"The Royal Oak","streetaddr":"317 Walton Road, West Molesey, Surrey","postcode":"KT8 2QG","easting":513257,"northing":168375,"lat":51.403107,"long":-0.37319},"geometry":{"type":"Point","coordinates":[-0.37319,51.403107]}},{"type":"Feature","properties":{"oid_":241769,"pubname":"The Swan Inn","streetaddr":"The Swan, 2 Hare Lane, Claygate","postcode":"KT10 9BS","easting":514735,"northing":164015,"lat":51.363623,"long":-0.353359},"geometry":{"type":"Point","coordinates":[-0.353359,51.363623]}},{"type":"Feature","properties":{"oid_":241775,"pubname":"The Wheatsheaf","streetaddr":"40 Esher Green, Esher, Surrey","postcode":"KT10 8AQ","easting":513773,"northing":164934,"lat":51.372067,"long":-0.366877},"geometry":{"type":"Point","coordinates":[-0.366877,51.372067]}},{"type":"Feature","properties":{"oid_":241784,"pubname":"Tiffins Sports Centre","streetaddr":"Tiffins Sports Club, Grist Memorial Sports Ground, Summer Road","postcode":"KT8 9LU","easting":515070,"northing":167715,"lat":51.396811,"long":-0.347352},"geometry":{"type":"Point","coordinates":[-0.347352,51.396811]}},{"type":"Feature","properties":{"oid_":241853,"pubname":"Weston Green Sports & Country Club","streetaddr":"Pavilion, Seeboard Sports Ground, Longmead Road","postcode":"KT7 0JF","easting":515651,"northing":166431,"lat":51.385152,"long":-0.339422},"geometry":{"type":"Point","coordinates":[-0.339422,51.385152]}},{"type":"Feature","properties":{"oid_":241878,"pubname":"Ye Olde Swan","streetaddr":"Summer Road, Thames Ditton, Surrey","postcode":"KT7 0QQ","easting":516046,"northing":167383,"lat":51.393628,"long":-0.333438},"geometry":{"type":"Point","coordinates":[-0.333438,51.393628]}},{"type":"Feature","properties":{"oid_":241885,"pubname":"Zenzi Lounge","streetaddr":"6-8 Church Street, Esher, Surrey","postcode":"KT10 8QS","easting":513824,"northing":164689,"lat":51.369864,"long":-0.366223},"geometry":{"type":"Point","coordinates":[-0.366223,51.369864]}},{"type":"Feature","properties":{"oid_":242156,"pubname":"Queen Adelaide","streetaddr":"272 Kingston Road, Ewell, Surrey","postcode":"KT19 0SH","easting":521446,"northing":164161,"lat":51.363542,"long":-0.25696},"geometry":{"type":"Point","coordinates":[-0.25696,51.363542]}},{"type":"Feature","properties":{"oid_":242274,"pubname":"The Station","streetaddr":"Stoneleigh Broadway, Stoneleigh, Surrey","postcode":"KT17 2JA","easting":522101,"northing":164166,"lat":51.363446,"long":-0.247555},"geometry":{"type":"Point","coordinates":[-0.247555,51.363446]}}]}